{
  "type": "FeatureCollection",
  "features": [
    {
      "type": "Feature",
      "properties": {
        "norad_id": 66362,
        "name": "STARLINK-35822",
        "group": "last-30-days",
        "lat": 40.19409564475108,
        "lon": 105.27648250353218,
        "alt_km": 363.376856980919,
        "timestamp": "2025-12-02T17:49:10.798425+00:00",
        "meta_object_name": "STARLINK-35822",
        "meta_object_id": "2025-254Q",
        "meta_epoch": "2025-12-02T12:00:05.998752",
        "meta_mean_motion": 15.67454333,
        "meta_eccentricity": 0.0001262,
        "meta_inclination": 53.159,
        "meta_ra_of_asc_node": 325.7728,
        "meta_arg_of_pericenter": 89.0274,
        "meta_mean_anomaly": 108.899,
        "meta_ephemeris_type": 0,
        "meta_classification_type": "U",
        "meta_norad_cat_id": 66362,
        "meta_element_set_no": 999,
        "meta_rev_at_epoch": 527,
        "meta_bstar": -0.020293,
        "meta_mean_motion_dot": -0.01977385,
        "meta_mean_motion_ddot": 0,
        "tle_line1": "1 66362U 25254Q   25336.50006943 -.01977385  00000+0 -20293-1 0  9995",
        "tle_line2": "2 66362  53.1590 325.7728 0001262  89.0274 108.8990 15.67454333  5273"
      },
      "geometry": {
        "type": "Point",
        "coordinates": [
          105.27648250353218,
          40.19409564475108
        ]
      }
    },
    {
      "type": "Feature",
      "properties": {
        "norad_id": 66363,
        "name": "STARLINK-35806",
        "group": "last-30-days",
        "lat": 41.36624915213515,
        "lon": 103.26910702136692,
        "alt_km": 363.14932594264974,
        "timestamp": "2025-12-02T17:49:10.798437+00:00",
        "meta_object_name": "STARLINK-35806",
        "meta_object_id": "2025-254R",
        "meta_epoch": "2025-12-02T12:00:05.998752",
        "meta_mean_motion": 15.6744961,
        "meta_eccentricity": 0.0001341,
        "meta_inclination": 53.1587,
        "meta_ra_of_asc_node": 325.7763,
        "meta_arg_of_pericenter": 86.9352,
        "meta_mean_anomaly": 109.0738,
        "meta_ephemeris_type": 0,
        "meta_classification_type": "U",
        "meta_norad_cat_id": 66363,
        "meta_element_set_no": 999,
        "meta_rev_at_epoch": 524,
        "meta_bstar": -0.020201,
        "meta_mean_motion_dot": -0.01969132,
        "meta_mean_motion_ddot": 0,
        "tle_line1": "1 66363U 25254R   25336.50006943 -.01969132  00000+0 -20201-1 0  9996",
        "tle_line2": "2 66363  53.1587 325.7763 0001341  86.9352 109.0738 15.67449610  5242"
      },
      "geometry": {
        "type": "Point",
        "coordinates": [
          103.26910702136692,
          41.36624915213515
        ]
      }
    },
    {
      "type": "Feature",
      "properties": {
        "norad_id": 66364,
        "name": "STARLINK-35797",
        "group": "last-30-days",
        "lat": 38.987135193729976,
        "lon": 107.21494066304504,
        "alt_km": 363.65340249957535,
        "timestamp": "2025-12-02T17:49:10.798450+00:00",
        "meta_object_name": "STARLINK-35797",
        "meta_object_id": "2025-254S",
        "meta_epoch": "2025-12-02T12:00:05.998752",
        "meta_mean_motion": 15.67462619,
        "meta_eccentricity": 0.000116,
        "meta_inclination": 53.159,
        "meta_ra_of_asc_node": 325.7683,
        "meta_arg_of_pericenter": 87.3365,
        "meta_mean_anomaly": 112.5068,
        "meta_ephemeris_type": 0,
        "meta_classification_type": "U",
        "meta_norad_cat_id": 66364,
        "meta_element_set_no": 999,
        "meta_rev_at_epoch": 527,
        "meta_bstar": -0.020447,
        "meta_mean_motion_dot": -0.01991032,
        "meta_mean_motion_ddot": 0,
        "tle_line1": "1 66364U 25254S   25336.50006943 -.01991032  00000+0 -20447-1 0  9993",
        "tle_line2": "2 66364  53.1590 325.7683 0001160  87.3365 112.5068 15.67462619  5278"
      },
      "geometry": {
        "type": "Point",
        "coordinates": [
          107.21494066304504,
          38.987135193729976
        ]
      }
    },
    {
      "type": "Feature",
      "properties": {
        "norad_id": 66365,
        "name": "STARLINK-35827",
        "group": "last-30-days",
        "lat": 36.489187803441645,
        "lon": 110.88948504766546,
        "alt_km": 364.0313063295016,
        "timestamp": "2025-12-02T17:49:10.798460+00:00",
        "meta_object_name": "STARLINK-35827",
        "meta_object_id": "2025-254T",
        "meta_epoch": "2025-12-02T12:00:05.998752",
        "meta_mean_motion": 15.67453271,
        "meta_eccentricity": 0.0001207,
        "meta_inclination": 53.159,
        "meta_ra_of_asc_node": 325.7611,
        "meta_arg_of_pericenter": 91.0408,
        "meta_mean_anomaly": 112.6368,
        "meta_ephemeris_type": 0,
        "meta_classification_type": "U",
        "meta_norad_cat_id": 66365,
        "meta_element_set_no": 999,
        "meta_rev_at_epoch": 524,
        "meta_bstar": -0.020281,
        "meta_mean_motion_dot": -0.01976221,
        "meta_mean_motion_ddot": 0,
        "tle_line1": "1 66365U 25254T   25336.50006943 -.01976221  00000+0 -20281-1 0  9993",
        "tle_line2": "2 66365  53.1590 325.7611 0001207  91.0408 112.6368 15.67453271  5247"
      },
      "geometry": {
        "type": "Point",
        "coordinates": [
          110.88948504766546,
          36.489187803441645
        ]
      }
    },
    {
      "type": "Feature",
      "properties": {
        "norad_id": 66366,
        "name": "STARLINK-35845",
        "group": "last-30-days",
        "lat": 37.754176646123184,
        "lon": 109.08007932892491,
        "alt_km": 363.7039993369299,
        "timestamp": "2025-12-02T17:49:10.798471+00:00",
        "meta_object_name": "STARLINK-35845",
        "meta_object_id": "2025-254U",
        "meta_epoch": "2025-12-02T12:00:05.998752",
        "meta_mean_motion": 15.67453333,
        "meta_eccentricity": 0.0001406,
        "meta_inclination": 53.1588,
        "meta_ra_of_asc_node": 325.7643,
        "meta_arg_of_pericenter": 90.7287,
        "meta_mean_anomaly": 111.0292,
        "meta_ephemeris_type": 0,
        "meta_classification_type": "U",
        "meta_norad_cat_id": 66366,
        "meta_element_set_no": 999,
        "meta_rev_at_epoch": 527,
        "meta_bstar": -0.020262,
        "meta_mean_motion_dot": -0.01974755,
        "meta_mean_motion_ddot": 0,
        "tle_line1": "1 66366U 25254U   25336.50006943 -.01974755  00000+0 -20262-1 0  9993",
        "tle_line2": "2 66366  53.1588 325.7643 0001406  90.7287 111.0292 15.67453333  5273"
      },
      "geometry": {
        "type": "Point",
        "coordinates": [
          109.08007932892491,
          37.754176646123184
        ]
      }
    },
    {
      "type": "Feature",
      "properties": {
        "norad_id": 66367,
        "name": "STARLINK-35846",
        "group": "last-30-days",
        "lat": 35.19673124520413,
        "lon": 112.63899692008019,
        "alt_km": 364.21198865483257,
        "timestamp": "2025-12-02T17:49:10.798481+00:00",
        "meta_object_name": "STARLINK-35846",
        "meta_object_id": "2025-254V",
        "meta_epoch": "2025-12-02T12:00:05.998752",
        "meta_mean_motion": 15.67456356,
        "meta_eccentricity": 0.0001406,
        "meta_inclination": 53.159,
        "meta_ra_of_asc_node": 325.7559,
        "meta_arg_of_pericenter": 85.6664,
        "meta_mean_anomaly": 119.926,
        "meta_ephemeris_type": 0,
        "meta_classification_type": "U",
        "meta_norad_cat_id": 66367,
        "meta_element_set_no": 999,
        "meta_rev_at_epoch": 522,
        "meta_bstar": -0.020325,
        "meta_mean_motion_dot": -0.01980328,
        "meta_mean_motion_ddot": 0,
        "tle_line1": "1 66367U 25254V   25336.50006943 -.01980328  00000+0 -20325-1 0  9997",
        "tle_line2": "2 66367  53.1590 325.7559 0001406  85.6664 119.9260 15.67456356  5220"
      },
      "geometry": {
        "type": "Point",
        "coordinates": [
          112.63899692008019,
          35.19673124520413
        ]
      }
    },
    {
      "type": "Feature",
      "properties": {
        "norad_id": 66368,
        "name": "STARLINK-34861",
        "group": "last-30-days",
        "lat": 13.382119374905326,
        "lon": 134.22753754175318,
        "alt_km": 344.72406172375304,
        "timestamp": "2025-12-02T17:49:10.798492+00:00",
        "meta_object_name": "STARLINK-34861",
        "meta_object_id": "2025-254W",
        "meta_epoch": "2025-12-02T11:02:08.077344",
        "meta_mean_motion": 15.7425231,
        "meta_eccentricity": 0.0001543,
        "meta_inclination": 53.1569,
        "meta_ra_of_asc_node": 325.9067,
        "meta_arg_of_pericenter": 119.9542,
        "meta_mean_anomaly": 240.1631,
        "meta_ephemeris_type": 0,
        "meta_classification_type": "U",
        "meta_norad_cat_id": 66368,
        "meta_element_set_no": 999,
        "meta_rev_at_epoch": 406,
        "meta_bstar": 0.0011794,
        "meta_mean_motion_dot": 0.00176236,
        "meta_mean_motion_ddot": 0,
        "tle_line1": "1 66368U 25254W   25336.45981571  .00176236  00000+0  11794-2 0  9994",
        "tle_line2": "2 66368  53.1569 325.9067 0001543 119.9542 240.1631 15.74252310  4063"
      },
      "geometry": {
        "type": "Point",
        "coordinates": [
          134.22753754175318,
          13.382119374905326
        ]
      }
    }
  ]
}